ONEWEB-0534             
1 55797U 23029B   26194.59300415 -.00000008  00000+0 -52427-4 0  9991
2 55797  87.9184 269.2059 0002045 102.5991 257.5371 13.20773171164635
ONEWEB-0556             
1 55798U 23029C   26194.59977232 -.00000017  00000+0 -73588-4 0  9990
2 55798  87.9176 269.2033 0001447 109.9843 250.1446 13.20808809164630
ONEWEB-0562             
1 55799U 23029D   26194.58628373 -.00000023  00000+0 -88291-4 0  9993
2 55799  87.9181 269.1867 0001374  80.0706 280.0582 13.20772201164636
ONEWEB-0563             
1 55800U 23029E   26193.74789872  .00000001  00000+0 -28856-4 0  9991
2 55800  87.9178 269.3847 0002067 104.8818 255.2544 13.20769722164517
ONEWEB-0564             
1 55801U 23029F   26194.57450573 -.00000010  00000+0 -56318-4 0  9992
2 55801  87.9178 269.1937 0001785  90.7120 269.4218 13.20771931164634
ONEWEB-0638             
1 55802U 23029G   26194.19700036 -.00000250  00000+0 -71000-3 0  9993
2 55802  87.8951 284.5680 0001345  95.7877 264.3406 13.14504197162817
ONEWEB-0639             
1 55803U 23029H   26194.34032937 -.00000009  00000+0 -54280-4 0  9993
2 55803  87.9184 299.7680 0002556 121.8492 238.2890 13.19725797162356
ONEWEB-0640             
1 55804U 23029J   26194.20651377 -.00000315  00000+0 -88348-3 0  9995
2 55804  87.8961 284.5558 0001425 118.9014 241.2259 13.14502073162837
ONEWEB-0641             
1 55805U 23029K   26194.33559415 -.00000009  00000+0 -55776-4 0  9990
2 55805  87.9191 299.7599 0002111 104.9058 255.2309 13.19726661162368
ONEWEB-0642             
1 55806U 23029L   26194.33086965 -.00000229  00000+0 -60431-3 0  9993
2 55806  87.9184 299.7712 0002848 115.2917 244.8511 13.19727652162353
ONEWEB-0643             
1 55807U 23029M   26194.63309852  .00000161  00000+0  39885-3 0  9992
2 55807  87.8962 284.4581 0002674 109.6199 250.5220 13.14502072162867
ONEWEB-0644             
1 55808U 23029N   26194.32613244  .00000068  00000+0  13652-3 0  9992
2 55808  87.9180 299.7731 0002277 107.5884 252.5498 13.19725910162350
ONEWEB-0645             
1 55809U 23029P   26194.34824291 -.00000046  00000+0 -14743-3 0  9991
2 55809  87.9185 299.7654 0001999 120.2277 239.9054 13.19726049162359
ONEWEB-0646             
1 55810U 23029Q   26194.36561018 -.00000040  00000+0 -13175-3 0  9992
2 55810  87.9190 299.7616 0002205 105.8063 254.3313 13.19726331162340
ONEWEB-0648             
1 55811U 23029R   26193.68796343  .00000072  00000+0  15905-3 0  9994
2 55811  87.8971 284.6227 0002252 124.7134 235.4208 13.14503462162749
ONEWEB-0649             
1 55812U 23029S   26194.31505989  .00000040  00000+0  67091-4 0  9999
2 55812  87.9183 299.7706 0001998 108.5218 251.6132 13.19726777162370
ONEWEB-0650             
1 55813U 23029T   26194.31032503  .00000052  00000+0  97080-4 0  9991
2 55813  87.9184 299.7733 0002464 112.6560 247.4834 13.19726470162346
ONEWEB-0652             
1 55814U 23029U   26194.20175649 -.00000212  00000+0 -60520-3 0  9997
2 55814  87.8969 284.5272 0002010  95.2564 264.8795 13.14502556162783
ONEWEB-0653             
1 55815U 23029V   26194.64260326  .00000003  00000+0 -25550-4 0  9995
2 55815  87.8975 284.4368 0001954 100.3652 259.7698 13.14501817162872
ONEWEB-0654             
1 55816U 23029W   26194.63784588  .00000084  00000+0  19124-3 0  9993
2 55816  87.8977 284.4336 0001849  88.8606 271.2736 13.14501588162891
ONEWEB-0656             
1 55817U 23029X   26194.64351721 -.00000040  00000+0 -13029-3 0  9996
2 55817  87.9184 269.1599 0001891  90.0123 270.1227 13.20770089164649
ONEWEB-0657             
1 55818U 23029Y   26194.30561704  .00000055  00000+0  10532-3 0  9994
2 55818  87.9183 299.7732 0002293  79.3516 280.7875 13.19727259162351
ONEWEB-0658             
1 55819U 23029Z   26194.22504346 -.00000007  00000+0 -49495-4 0  9995
2 55819  87.9199 299.7658 0002345 108.8891 251.2496 13.19726475162359
ONEWEB-0660             
1 55820U 23029AA  26194.23505567  .00000378  00000+0  98568-3 0  9997
2 55820  87.8983 284.5096 0001934 107.7029 252.4312 13.14502293162820
ONEWEB-0661             
1 55821U 23029AB  26193.81324211 -.00000161  00000+0 -46995-3 0  9995
2 55821  87.8962 284.6346 0001807 106.3305 253.8024 13.14502357162756
ONEWEB-0662             
1 55822U 23029AC  26194.30483764 -.00004172  00000+0 -11291-1 0  9995
2 55822  87.8961 284.5428 0001541  97.4834 262.6471 13.14523810162861
ONEWEB-0663             
1 55823U 23029AD  26194.59949828  .00000077  00000+0  15599-3 0  9990
2 55823  87.9186 269.2403 0002194 107.2760 252.8614 13.20871425164630
ONEWEB-0664             
1 55824U 23029AE  26194.63006640 -.00000019  00000+0 -78402-4 0  9993
2 55824  87.9168 269.2119 0001669  99.4540 260.6782 13.20772117164630
ONEWEB-0665             
1 55825U 23029AF  26194.19066032 -.00000111  00000+0 -33446-3 0  9997
2 55825  87.8963 284.5400 0001981 109.8543 250.2801 13.14502145162823
ONEWEB-0666             
1 55826U 23029AG  26194.62331323  .00000004  00000+0 -23327-4 0  9992
2 55826  87.9172 269.2022 0002493  85.5519 274.5900 13.20772926164643
